METOP-B                 
1 38771U 12049A   23034.14202139  .00000159  00000+0  92698-4 0  9998
2 38771  98.6989  95.6390 0001551  89.6094 298.5887 14.21477481538504
